{
  "norad_id": 58170,
  "name": "STARLINK-30764",
  "history": [
    {
      "epoch": "2026-03-28T20:14:08.546208Z",
      "apogee_km": 476.0618633038239,
      "perigee_km": 474.4256871775442,
      "latitude_deg": 7.121636771053866e-05,
      "longitude_deg": 0.7204569880130303,
      "height_km": 476.20438752181514,
      "semi_major_axis_km": 6853.380775240684,
      "eccentricity": 0.00011937,
      "inclination_deg": 53.1596,
      "raan_deg": 130.5138,
      "arg_perigee_deg": 94.3806,
      "mean_anomaly_deg": 265.7332,
      "mean_motion_rev_day": 15.30190386
    }
  ]
}