{"fetched_at":"2026-03-29T16:36:15Z","count":15609,"tles":[{"name":"STARLINK-30764","line1":"1 58170U 23166W   26087.84315447  .00000259  00000+0  20881-4 0  9996","line2":"2 58170  53.1596 130.5138 0001193  94.3806 265.7332 15.30190386136113","category":"Starlink"}]}